      2.10          N: GNSS NAV DATA                        RINEX VERSION / TYPE
fic2rin                                 01/17/2023 00:17:45 PGM / RUN BY / DATE
                                                            END OF HEADER
3  23  1 16  1 59 44.0 -.371907372028D-03  .227373675443D-11  .000000000000D+00
     .260000000000D+02 -.262187500000D+02  .420017495415D-08  .267459274970D+00
    -.139325857162D-05  .441946822684D-02  .834278762341D-05  .515373956871D+04
     .935840000000D+05  .745058059692D-08 -.602996582371D+00  .260770320892D-07
     .977281877633D+00  .227000000000D+03  .102906059324D+01 -.793318759196D-08
     .263582407837D-09  .100000000000D+01  .224500000000D+04  .000000000000D+00
     .240000000000D+01  .000000000000D+00  .186264514923D-08  .260000000000D+02
     .864000000000D+05  .400000000000D+01
24 23  1 16  6  0  0.0 -.320067629218D-04 -.165982783074D-10  .000000000000D+00
     .500000000000D+02 -.681250000000D+01  .500842290663D-08 -.248563036290D+01
    -.378116965294D-06  .136715723202D-01  .951252877712D-05  .515366447639D+04
     .108000000000D+06  .577419996262D-07  .140543818758D+01 -.117346644402D-06
     .933650446860D+00  .179781250000D+03  .879114654403D+00 -.802819154926D-08
    -.177150236161D-09  .100000000000D+01  .224500000000D+04  .000000000000D+00
     .240000000000D+01  .000000000000D+00  .232830643654D-08  .500000000000D+02
     .100800000000D+06  .400000000000D+01
16 23  1 16  6  0  0.0 -.523698050529D-03  .113686837722D-11  .000000000000D+00
     .660000000000D+02  .841562500000D+02  .439804033889D-08  .306259257865D+00
     .456534326077D-05  .133141488768D-01  .670552253723D-05  .515377305412D+04
     .108000000000D+06 -.335276126862D-07  .262673758916D+01  .284984707832D-06
     .966595530241D+00  .253781250000D+03  .753038610052D+00 -.821069915143D-08
     .475019786481D-10  .100000000000D+01  .224500000000D+04  .000000000000D+00
     .240000000000D+01  .000000000000D+00 -.102445483208D-07  .660000000000D+02
     .100800000000D+06  .400000000000D+01
30 23  1 16  6  0  0.0 -.533134676516D-03  .102318153949D-11  .000000000000D+00
     .510000000000D+02  .126875000000D+02  .504628162646D-08  .277685454897D+01
     .592321157455D-06  .603113952093D-02  .105872750282D-04  .515365337181D+04
     .108000000000D+06 -.353902578354D-07  .150199350038D+01 -.121071934700D-06
     .935210729452D+00  .160687500000D+03 -.266262370403D+01 -.811319509000D-08
    -.285011871888D-09  .100000000000D+01  .224500000000D+04  .000000000000D+00
     .240000000000D+01  .000000000000D+00  .372529029846D-08  .510000000000D+02
     .100800000000D+06  .400000000000D+01
15 23  1 16  6  0  0.0  .502960756421D-05  .329691829393D-11  .000000000000D+00
     .670000000000D+02 -.138125000000D+02  .539701052144D-08 -.150982490462D+01
    -.540167093277D-06  .147403025767D-01  .614300370216D-05  .515365835571D+04
     .108000000000D+06  .301748514175D-06  .307242828891D+00  .216066837311D-06
     .931860230119D+00  .242656250000D+03  .117421905219D+01 -.840606443204D-08
     .607168148133D-10  .100000000000D+01  .224500000000D+04  .000000000000D+00
     .240000000000D+01  .000000000000D+00 -.107102096081D-07  .670000000000D+02
     .100800000000D+06  .400000000000D+01
19 23  1 16  6  0  0.0  .264739152044D-03  .511590769747D-11  .000000000000D+00
     .550000000000D+02 -.156250000000D+01  .440696928225D-08  .156048991971D+01
    -.195577740669D-06  .904475641437D-02  .357814133167D-05  .515360131645D+04
     .108000000000D+06  .163912773132D-06 -.259172601257D+01  .298023223877D-07
     .975162343403D+00  .316625000000D+03  .222832060291D+01 -.818605526777D-08
    -.135362781260D-09  .100000000000D+01  .224500000000D+04  .000000000000D+00
     .240000000000D+01  .000000000000D+00 -.153668224812D-07  .550000000000D+02
     .100800000000D+06  .400000000000D+01
17 23  1 16  6  0  0.0  .693657435477D-03  .261479726760D-11  .000000000000D+00
     .600000000000D+02 -.140625000000D+01  .450161608181D-08 -.559954210192D+00
    -.176951289177D-06  .137746136170D-01  .428408384323D-05  .515369572449D+04
     .108000000000D+06 -.203028321266D-06 -.263635679487D+01  .689178705215D-07
     .976196914680D+00  .310093750000D+03 -.142972717737D+01 -.849321091918D-08
     .642883921553D-11  .100000000000D+01  .224500000000D+04  .000000000000D+00
     .240000000000D+01  .000000000000D+00 -.111758708954D-07  .600000000000D+02
     .100800000000D+06  .400000000000D+01
25 23  1 16  6  0  0.0  .411712564528D-03  .341060513165D-11  .000000000000D+00
     .720000000000D+02  .828437500000D+02  .454268922124D-08  .204984529212D+01
     .419281423092D-05  .111216490623D-01  .810809433460D-05  .515356441879D+04
     .108000000000D+06 -.128522515297D-06  .252761498387D+01 -.249594449997D-06
     .954375389314D+00  .218437500000D+03  .101532410115D+01 -.806355016494D-08
     .875036448780D-10  .100000000000D+01  .224500000000D+04  .000000000000D+00
     .240000000000D+01  .000000000000D+00  .558793544769D-08  .720000000000D+02
     .100800000000D+06  .400000000000D+01
22 23  1 16  6  0  0.0  .406887382269D-03  .795807864051D-11  .000000000000D+00
     .600000000000D+02 -.233125000000D+02  .484698761078D-08 -.807681899193D+00
    -.111013650894D-05  .137405390851D-01  .694952905178D-05  .515358170891D+04
     .108000000000D+06 -.171363353729D-06  .526216999096D+00  .186264514923D-06
     .962313064316D+00  .249281250000D+03 -.183284409370D+01 -.837499170916D-08
    -.127505311108D-09  .100000000000D+01  .224500000000D+04  .000000000000D+00
     .240000000000D+01  .000000000000D+00 -.791624188423D-08  .600000000000D+02
     .100800000000D+06  .400000000000D+01
23 23  1 16  6  0  0.0  .263005495071D-05  .113686837722D-11  .000000000000D+00
     .300000000000D+02 -.259062500000D+02  .425231998334D-08  .263318210025D+01
    -.128895044327D-05  .297600438353D-02  .854767858982D-05  .515364855385D+04
     .108000000000D+06 -.117346644402D-06 -.632331257078D+00  .372529029846D-08
     .972145733178D+00  .221875000000D+03 -.312694173237D+01 -.789104297933D-08
     .310727228751D-09  .100000000000D+01  .224500000000D+04  .000000000000D+00
     .240000000000D+01  .000000000000D+00 -.838190317154D-08  .286000000000D+03
     .100800000000D+06  .400000000000D+01
18 23  1 16  6  0  0.0 -.100967008621D-03 -.152340362547D-10  .000000000000D+00
     .216000000000D+03 -.560937500000D+02  .418017412103D-08 -.264505189131D+01
    -.290572643280D-05  .295875931624D-02  .740215182304D-05  .515370521927D+04
     .108000000000D+06 -.540167093277D-07 -.163218624009D+01 -.167638063431D-07
     .972966335130D+00  .246843750000D+03 -.310440988274D+01 -.793890211571D-08
    -.139291516336D-10  .100000000000D+01  .224500000000D+04  .000000000000D+00
     .240000000000D+01  .000000000000D+00 -.838190317154D-08  .984000000000D+03
     .100800000000D+06  .400000000000D+01
31 23  1 16  5 59 44.0 -.206456519663D-03 -.102318153949D-11  .000000000000D+00
     .100000000000D+02  .105000000000D+02  .458090509880D-08  .232852457676D+01
     .447034835815D-06  .107883227756D-01  .989250838757D-05  .515364448929D+04
     .107984000000D+06 -.149011611938D-06  .151333508000D+01 -.633299350739D-07
     .954200299964D+00  .189156250000D+03  .492890039969D+00 -.791782980939D-08
    -.278225874939D-09  .100000000000D+01  .224500000000D+04  .000000000000D+00
     .240000000000D+01  .000000000000D+00 -.135041773319D-07  .100000000000D+02
     .104280000000D+06  .400000000000D+01
13 23  1 16  5 59 44.0  .460153911263D-03  .636646291241D-11  .000000000000D+00
     .100000000000D+01 -.231875000000D+02  .460304887832D-08 -.101482671193D+01
    -.121444463730D-05  .675568648148D-02  .707432627678D-05  .515366321182D+04
     .107984000000D+06  .931322574615D-07  .580276253304D+00  .134110450745D-06
     .969469349421D+00  .246968750000D+03  .945333979195D+00 -.807819363205D-08
    -.135362781260D-09  .100000000000D+01  .224500000000D+04  .000000000000D+00
     .240000000000D+01  .000000000000D+00 -.111758708954D-07  .100000000000D+01
     .104400000000D+06  .400000000000D+01
13 23  1 16  7 59 44.0  .460200011730D-03  .636646291241D-11  .000000000000D+00
     .900000000000D+01 -.231875000000D+02  .466912305915D-08  .353489547573D-01
    -.111944973469D-05  .675563304685D-02  .705011188984D-05  .515366304398D+04
     .115184000000D+06 -.558793544769D-08  .580217686841D+00  .100582838058D-06
     .969468142514D+00  .246000000000D+03  .945346690490D+00 -.813855328913D-08
    -.134291308058D-09  .100000000000D+01  .224500000000D+04  .000000000000D+00
     .240000000000D+01  .000000000000D+00 -.111758708954D-07  .900000000000D+01
     .108000000000D+06  .400000000000D+01
